STPSAT-4                
1 45043U 98067QY  22248.33156581  .00252980  35377-4  71980-3 0  9999
2 45043  51.6297 240.9197 0004093  75.4137 284.7324 15.92841617148156
SORTIE                  
1 45264U 98067RH  22248.32110605  .00491999  12180-3  76264-3 0  9991
2 45264  51.6343 232.6076 0003242  97.6716 262.4664 16.03571085144935
ICS-EF (ISS DEB)        
1 45265U 98067RJ  22248.51577152  .00032911  00000+0  31894-3 0  9996
2 45265  51.6356 267.0874 0004075 113.1587 246.9839 15.66052514144179
RED-EYE 2 (MERLOT)      
1 45800U 98067RM  22248.47797243  .00072704  00000+0  41594-3 0  9993
2 45800  51.6353 253.3623 0003129  56.0050 304.1248 15.78176390126218
RED-EYE 3 (CABERNET)    
1 45809U 98067RN  22248.48184611  .00073502  00000+0  42035-3 0  9990
2 45809  51.6372 253.3984 0003334  62.5429 297.5911 15.78179746125194
ISS DEB                 
1 47853U 98067RZ  22248.50625782  .00010705  00000+0  16374-3 0  9996
2 47853  51.6414 291.1462 0001925 325.6238  34.4628 15.54958961 84362
MMSATS-1                
1 47976U 98067SJ  22248.58135815  .00031400  00000+0  35236-3 0  9996
2 47976  51.6399 281.5533 0001796   2.4605 132.7555 15.62355985 82776
CSS (TIANHE)            
1 48274U 21035A   22248.60065127  .00016890  00000+0  19049-3 0  9990
2 48274  41.4719  89.0816 0006557 256.8194 155.4562 15.62103709 77346
