<?xml version="1.0" encoding="UTF-8"?>
<ndm xmlns:xsi="http://www.w3.org/2001/XMLSchema-instance" xsi:noNamespaceSchemaLocation="https://sanaregistry.org/r/ndmxml_unqualified/ndmxml-2.0.0-master-2.0.xsd">
<omm id="CCSDS_OMM_VERS" version="2.0">
<header><CREATION_DATE/><ORIGINATOR/></header><body><segment><metadata><OBJECT_NAME>STPSAT-4</OBJECT_NAME><OBJECT_ID>1998-067QY</OBJECT_ID><CENTER_NAME>EARTH</CENTER_NAME><REF_FRAME>TEME</REF_FRAME><TIME_SYSTEM>UTC</TIME_SYSTEM><MEAN_ELEMENT_THEORY>SGP4</MEAN_ELEMENT_THEORY></metadata><data><meanElements><EPOCH>2022-09-05T07:57:27.285984</EPOCH><MEAN_MOTION>15.92841617</MEAN_MOTION><ECCENTRICITY>.0004093</ECCENTRICITY><INCLINATION>51.6297</INCLINATION><RA_OF_ASC_NODE>240.9197</RA_OF_ASC_NODE><ARG_OF_PERICENTER>75.4137</ARG_OF_PERICENTER><MEAN_ANOMALY>284.7324</MEAN_ANOMALY></meanElements><tleParameters><EPHEMERIS_TYPE>0</EPHEMERIS_TYPE><CLASSIFICATION_TYPE>U</CLASSIFICATION_TYPE><NORAD_CAT_ID>45043</NORAD_CAT_ID><ELEMENT_SET_NO>999</ELEMENT_SET_NO><REV_AT_EPOCH>14815</REV_AT_EPOCH><BSTAR>.7198E-3</BSTAR><MEAN_MOTION_DOT>.25298E-2</MEAN_MOTION_DOT><MEAN_MOTION_DDOT>.35377E-4</MEAN_MOTION_DDOT></tleParameters></data></segment></body></omm>
<omm id="CCSDS_OMM_VERS" version="2.0">
<header><CREATION_DATE/><ORIGINATOR/></header><body><segment><metadata><OBJECT_NAME>SORTIE</OBJECT_NAME><OBJECT_ID>1998-067RH</OBJECT_ID><CENTER_NAME>EARTH</CENTER_NAME><REF_FRAME>TEME</REF_FRAME><TIME_SYSTEM>UTC</TIME_SYSTEM><MEAN_ELEMENT_THEORY>SGP4</MEAN_ELEMENT_THEORY></metadata><data><meanElements><EPOCH>2022-09-05T07:42:23.562720</EPOCH><MEAN_MOTION>16.03571085</MEAN_MOTION><ECCENTRICITY>.0003242</ECCENTRICITY><INCLINATION>51.6343</INCLINATION><RA_OF_ASC_NODE>232.6076</RA_OF_ASC_NODE><ARG_OF_PERICENTER>97.6716</ARG_OF_PERICENTER><MEAN_ANOMALY>262.4664</MEAN_ANOMALY></meanElements><tleParameters><EPHEMERIS_TYPE>0</EPHEMERIS_TYPE><CLASSIFICATION_TYPE>U</CLASSIFICATION_TYPE><NORAD_CAT_ID>45264</NORAD_CAT_ID><ELEMENT_SET_NO>999</ELEMENT_SET_NO><REV_AT_EPOCH>14493</REV_AT_EPOCH><BSTAR>.76264E-3</BSTAR><MEAN_MOTION_DOT>.491999E-2</MEAN_MOTION_DOT><MEAN_MOTION_DDOT>.1218E-3</MEAN_MOTION_DDOT></tleParameters></data></segment></body></omm>
<omm id="CCSDS_OMM_VERS" version="2.0">
<header><CREATION_DATE/><ORIGINATOR/></header><body><segment><metadata><OBJECT_NAME>ICS-EF (ISS DEB)</OBJECT_NAME><OBJECT_ID>1998-067RJ</OBJECT_ID><CENTER_NAME>EARTH</CENTER_NAME><REF_FRAME>TEME</REF_FRAME><TIME_SYSTEM>UTC</TIME_SYSTEM><MEAN_ELEMENT_THEORY>SGP4</MEAN_ELEMENT_THEORY></metadata><data><meanElements><EPOCH>2022-09-05T12:22:42.659328</EPOCH><MEAN_MOTION>15.66052514</MEAN_MOTION><ECCENTRICITY>.0004075</ECCENTRICITY><INCLINATION>51.6356</INCLINATION><RA_OF_ASC_NODE>267.0874</RA_OF_ASC_NODE><ARG_OF_PERICENTER>113.1587</ARG_OF_PERICENTER><MEAN_ANOMALY>246.9839</MEAN_ANOMALY></meanElements><tleParameters><EPHEMERIS_TYPE>0</EPHEMERIS_TYPE><CLASSIFICATION_TYPE>U</CLASSIFICATION_TYPE><NORAD_CAT_ID>45265</NORAD_CAT_ID><ELEMENT_SET_NO>999</ELEMENT_SET_NO><REV_AT_EPOCH>14417</REV_AT_EPOCH><BSTAR>.31894E-3</BSTAR><MEAN_MOTION_DOT>.32911E-3</MEAN_MOTION_DOT><MEAN_MOTION_DDOT>0</MEAN_MOTION_DDOT></tleParameters></data></segment></body></omm>
<omm id="CCSDS_OMM_VERS" version="2.0">
<header><CREATION_DATE/><ORIGINATOR/></header><body><segment><metadata><OBJECT_NAME>RED-EYE 2 (MERLOT)</OBJECT_NAME><OBJECT_ID>1998-067RM</OBJECT_ID><CENTER_NAME>EARTH</CENTER_NAME><REF_FRAME>TEME</REF_FRAME><TIME_SYSTEM>UTC</TIME_SYSTEM><MEAN_ELEMENT_THEORY>SGP4</MEAN_ELEMENT_THEORY></metadata><data><meanElements><EPOCH>2022-09-05T11:28:16.817952</EPOCH><MEAN_MOTION>15.78176390</MEAN_MOTION><ECCENTRICITY>.0003129</ECCENTRICITY><INCLINATION>51.6353</INCLINATION><RA_OF_ASC_NODE>253.3623</RA_OF_ASC_NODE><ARG_OF_PERICENTER>56.0050</ARG_OF_PERICENTER><MEAN_ANOMALY>304.1248</MEAN_ANOMALY></meanElements><tleParameters><EPHEMERIS_TYPE>0</EPHEMERIS_TYPE><CLASSIFICATION_TYPE>U</CLASSIFICATION_TYPE><NORAD_CAT_ID>45800</NORAD_CAT_ID><ELEMENT_SET_NO>999</ELEMENT_SET_NO><REV_AT_EPOCH>12621</REV_AT_EPOCH><BSTAR>.41594E-3</BSTAR><MEAN_MOTION_DOT>.72704E-3</MEAN_MOTION_DOT><MEAN_MOTION_DDOT>0</MEAN_MOTION_DDOT></tleParameters></data></segment></body></omm>
<omm id="CCSDS_OMM_VERS" version="2.0">
<header><CREATION_DATE/><ORIGINATOR/></header><body><segment><metadata><OBJECT_NAME>RED-EYE 3 (CABERNET)</OBJECT_NAME><OBJECT_ID>1998-067RN</OBJECT_ID><CENTER_NAME>EARTH</CENTER_NAME><REF_FRAME>TEME</REF_FRAME><TIME_SYSTEM>UTC</TIME_SYSTEM><MEAN_ELEMENT_THEORY>SGP4</MEAN_ELEMENT_THEORY></metadata><data><meanElements><EPOCH>2022-09-05T11:33:51.503904</EPOCH><MEAN_MOTION>15.78179746</MEAN_MOTION><ECCENTRICITY>.0003334</ECCENTRICITY><INCLINATION>51.6372</INCLINATION><RA_OF_ASC_NODE>253.3984</RA_OF_ASC_NODE><ARG_OF_PERICENTER>62.5429</ARG_OF_PERICENTER><MEAN_ANOMALY>297.5911</MEAN_ANOMALY></meanElements><tleParameters><EPHEMERIS_TYPE>0</EPHEMERIS_TYPE><CLASSIFICATION_TYPE>U</CLASSIFICATION_TYPE><NORAD_CAT_ID>45809</NORAD_CAT_ID><ELEMENT_SET_NO>999</ELEMENT_SET_NO><REV_AT_EPOCH>12519</REV_AT_EPOCH><BSTAR>.42035E-3</BSTAR><MEAN_MOTION_DOT>.73502E-3</MEAN_MOTION_DOT><MEAN_MOTION_DDOT>0</MEAN_MOTION_DDOT></tleParameters></data></segment></body></omm>
<omm id="CCSDS_OMM_VERS" version="2.0">
<header><CREATION_DATE/><ORIGINATOR/></header><body><segment><metadata><OBJECT_NAME>ISS DEB</OBJECT_NAME><OBJECT_ID>1998-067RZ</OBJECT_ID><CENTER_NAME>EARTH</CENTER_NAME><REF_FRAME>TEME</REF_FRAME><TIME_SYSTEM>UTC</TIME_SYSTEM><MEAN_ELEMENT_THEORY>SGP4</MEAN_ELEMENT_THEORY></metadata><data><meanElements><EPOCH>2022-09-05T12:09:00.675648</EPOCH><MEAN_MOTION>15.54958961</MEAN_MOTION><ECCENTRICITY>.0001925</ECCENTRICITY><INCLINATION>51.6414</INCLINATION><RA_OF_ASC_NODE>291.1462</RA_OF_ASC_NODE><ARG_OF_PERICENTER>325.6238</ARG_OF_PERICENTER><MEAN_ANOMALY>34.4628</MEAN_ANOMALY></meanElements><tleParameters><EPHEMERIS_TYPE>0</EPHEMERIS_TYPE><CLASSIFICATION_TYPE>U</CLASSIFICATION_TYPE><NORAD_CAT_ID>47853</NORAD_CAT_ID><ELEMENT_SET_NO>999</ELEMENT_SET_NO><REV_AT_EPOCH>8436</REV_AT_EPOCH><BSTAR>.16374E-3</BSTAR><MEAN_MOTION_DOT>.10705E-3</MEAN_MOTION_DOT><MEAN_MOTION_DDOT>0</MEAN_MOTION_DDOT></tleParameters></data></segment></body></omm>
<omm id="CCSDS_OMM_VERS" version="2.0">
<header><CREATION_DATE/><ORIGINATOR/></header><body><segment><metadata><OBJECT_NAME>MMSATS-1</OBJECT_NAME><OBJECT_ID>1998-067SJ</OBJECT_ID><CENTER_NAME>EARTH</CENTER_NAME><REF_FRAME>TEME</REF_FRAME><TIME_SYSTEM>UTC</TIME_SYSTEM><MEAN_ELEMENT_THEORY>SGP4</MEAN_ELEMENT_THEORY></metadata><data><meanElements><EPOCH>2022-09-05T13:57:09.344160</EPOCH><MEAN_MOTION>15.62355985</MEAN_MOTION><ECCENTRICITY>.0001796</ECCENTRICITY><INCLINATION>51.6399</INCLINATION><RA_OF_ASC_NODE>281.5533</RA_OF_ASC_NODE><ARG_OF_PERICENTER>2.4605</ARG_OF_PERICENTER><MEAN_ANOMALY>132.7555</MEAN_ANOMALY></meanElements><tleParameters><EPHEMERIS_TYPE>0</EPHEMERIS_TYPE><CLASSIFICATION_TYPE>U</CLASSIFICATION_TYPE><NORAD_CAT_ID>47976</NORAD_CAT_ID><ELEMENT_SET_NO>999</ELEMENT_SET_NO><REV_AT_EPOCH>8277</REV_AT_EPOCH><BSTAR>.35236E-3</BSTAR><MEAN_MOTION_DOT>.314E-3</MEAN_MOTION_DOT><MEAN_MOTION_DDOT>0</MEAN_MOTION_DDOT></tleParameters></data></segment></body></omm>
<omm id="CCSDS_OMM_VERS" version="2.0">
<header><CREATION_DATE/><ORIGINATOR/></header><body><segment><metadata><OBJECT_NAME>CSS (TIANHE)</OBJECT_NAME><OBJECT_ID>2021-035A</OBJECT_ID><CENTER_NAME>EARTH</CENTER_NAME><REF_FRAME>TEME</REF_FRAME><TIME_SYSTEM>UTC</TIME_SYSTEM><MEAN_ELEMENT_THEORY>SGP4</MEAN_ELEMENT_THEORY></metadata><data><meanElements><EPOCH>2022-09-05T14:24:56.269728</EPOCH><MEAN_MOTION>15.62103709</MEAN_MOTION><ECCENTRICITY>.0006557</ECCENTRICITY><INCLINATION>41.4719</INCLINATION><RA_OF_ASC_NODE>89.0816</RA_OF_ASC_NODE><ARG_OF_PERICENTER>256.8194</ARG_OF_PERICENTER><MEAN_ANOMALY>155.4562</MEAN_ANOMALY></meanElements><tleParameters><EPHEMERIS_TYPE>0</EPHEMERIS_TYPE><CLASSIFICATION_TYPE>U</CLASSIFICATION_TYPE><NORAD_CAT_ID>48274</NORAD_CAT_ID><ELEMENT_SET_NO>999</ELEMENT_SET_NO><REV_AT_EPOCH>7734</REV_AT_EPOCH><BSTAR>.19049E-3</BSTAR><MEAN_MOTION_DOT>.1689E-3</MEAN_MOTION_DOT><MEAN_MOTION_DDOT>0</MEAN_MOTION_DDOT></tleParameters></data></segment></body></omm>

</ndm>
